{
    "links": {
        "self": "http://www.neowsapp.com/rest/v1/neo/3485261?api_key=iIulBulltgU6a56xZRHN4H3l9WmuAYTsLGpBGhQ2"
    },
    "id": "3485261",
    "neo_reference_id": "3485261",
    "name": "(2010 AG30)",
    "designation": "2010 AG30",
    "nasa_jpl_url": "http://ssd.jpl.nasa.gov/sbdb.cgi?sstr=3485261",
    "absolute_magnitude_h": 27.1,
    "estimated_diameter": {
        "kilometers": {
            "estimated_diameter_min": 0.0101054342,
            "estimated_diameter_max": 0.0225964377
        },
        "meters": {
            "estimated_diameter_min": 10.1054341542,
            "estimated_diameter_max": 22.5964377109
        },
        "miles": {
            "estimated_diameter_min": 0.0062792237,
            "estimated_diameter_max": 0.0140407711
        },
        "feet": {
            "estimated_diameter_min": 33.1543125905,
            "estimated_diameter_max": 74.1352966996
        }
    },
    "is_potentially_hazardous_asteroid": false,
    "close_approach_data": [
        {
            "close_approach_date": "2010-01-14",
            "close_approach_date_full": "2010-Jan-14 13:35",
            "epoch_date_close_approach": 1263476100000,
            "relative_velocity": {
                "kilometers_per_second": "18.6373765869",
                "kilometers_per_hour": "67094.5557129196",
                "miles_per_hour": "41689.947687286"
            },
            "miss_distance": {
                "astronomical": "0.0069636098",
                "lunar": "2.7088442122",
                "kilometers": "1041741.193591126",
                "miles": "647307.9616284988"
            },
            "orbiting_body": "Earth"
        },
        {
            "close_approach_date": "2010-01-14",
            "close_approach_date_full": "2010-Jan-14 19:57",
            "epoch_date_close_approach": 1263499020000,
            "relative_velocity": {
                "kilometers_per_second": "18.6884576409",
                "kilometers_per_hour": "67278.4475072533",
                "miles_per_hour": "41804.2108969375"
            },
            "miss_distance": {
                "astronomical": "0.0070650155",
                "lunar": "2.7482910295",
                "kilometers": "1056911.270316985",
                "miles": "656734.210204993"
            },
            "orbiting_body": "Moon"
        }
    ],
    "orbital_data": {
        "orbit_id": "8",
        "orbit_determination_date": "2017-04-06 08:58:37",
        "first_observation_date": "2010-01-10",
        "last_observation_date": "2010-01-14",
        "data_arc_in_days": 4,
        "observations_used": 26,
        "orbit_uncertainty": "9",
        "minimum_orbit_intersection": ".00648545",
        "jupiter_tisserand_invariant": "3.251",
        "epoch_osculation": "2455207.5",
        "eccentricity": ".694443161752383",
        "semi_major_axis": "2.259001687076899",
        "inclination": "2.086941361812954",
        "ascending_node_longitude": "103.5811144879472",
        "orbital_period": "1240.147264828606",
        "perihelion_distance": ".6902534130992498",
        "perihelion_argument": "84.62372323444679",
        "aphelion_distance": "3.827749961054547",
        "perihelion_time": "2455253.937201762361",
        "mean_anomaly": "346.5198326774841",
        "mean_motion": ".2902881054612121",
        "equinox": "J2000",
        "orbit_class": {
            "orbit_class_type": "APO",
            "orbit_class_description": "Near-Earth asteroid orbits which cross the Earth’s orbit similar to that of 1862 Apollo",
            "orbit_class_range": "a (semi-major axis) > 1.0 AU; q (perihelion) < 1.017 AU"
        }
    },
    "is_sentry_object": false
}